{
  "norad_id": 44048,
  "name": "NUSANTARA SATU",
  "history": [
    {
      "epoch": "2026-03-28T20:36:47.066976Z",
      "apogee_km": 35796.051128241554,
      "perigee_km": 35778.0229864216,
      "latitude_deg": 0.03557273568251848,
      "longitude_deg": 146.00236216228802,
      "height_km": 35795.28008664652,
      "semi_major_axis_km": 42165.174057331584,
      "eccentricity": 0.00021378,
      "inclination_deg": 0.0308,
      "raan_deg": 135.3681,
      "arg_perigee_deg": 313.5835,
      "mean_anomaly_deg": 192.502,
      "mean_motion_rev_day": 1.00270208
    },
    {
      "epoch": "2026-03-29T09:26:08.485728Z",
      "apogee_km": 35796.22901722695,
      "perigee_km": 35777.88378488202,
      "latitude_deg": -0.028018838987133702,
      "longitude_deg": 146.01505758359636,
      "height_km": 35778.33728852239,
      "semi_major_axis_km": 42165.19340105449,
      "eccentricity": 0.00021754,
      "inclination_deg": 0.0321,
      "raan_deg": 133.67,
      "arg_perigee_deg": 314.8509,
      "mean_anomaly_deg": 25.7955,
      "mean_motion_rev_day": 1.00270139
    },
    {
      "epoch": "2026-03-30T20:31:49.869120Z",
      "apogee_km": 35796.84571553709,
      "perigee_km": 35777.525564703385,
      "latitude_deg": 0.03722149312795388,
      "longitude_deg": 145.99453603814268,
      "height_km": 35796.05921644074,
      "semi_major_axis_km": 42165.32264012024,
      "eccentricity": 0.0002291,
      "inclination_deg": 0.0325,
      "raan_deg": 134.0209,
      "arg_perigee_deg": 315.8947,
      "mean_anomaly_deg": 192.2631,
      "mean_motion_rev_day": 1.00269678
    },
    {
      "epoch": "2026-03-31T17:04:07.210848Z",
      "apogee_km": 35796.59324575476,
      "perigee_km": 35776.90224457877,
      "latitude_deg": 0.04513692147999856,
      "longitude_deg": 146.0191030728232,
      "height_km": 35793.11670777803,
      "semi_major_axis_km": 42164.88474516677,
      "eccentricity": 0.0002335,
      "inclination_deg": 0.0319,
      "raan_deg": 135.8803,
      "arg_perigee_deg": 320.5956,
      "mean_anomaly_deg": 134.621,
      "mean_motion_rev_day": 1.0027124
    },
    {
      "epoch": "2026-04-01T19:29:38.749920Z",
      "apogee_km": 35797.06755935227,
      "perigee_km": 35776.57538953369,
      "latitude_deg": 0.04289464477247831,
      "longitude_deg": 145.99811940089106,
      "height_km": 35796.50098312135,
      "semi_major_axis_km": 42164.95847444298,
      "eccentricity": 0.000243,
      "inclination_deg": 0.0318,
      "raan_deg": 137.8832,
      "arg_perigee_deg": 310.8047,
      "mean_anomaly_deg": 179.877,
      "mean_motion_rev_day": 1.00270977
    },
    {
      "epoch": "2026-04-02T20:11:38.724288Z",
      "apogee_km": 35796.92949043492,
      "perigee_km": 35775.73003983475,
      "latitude_deg": 0.03857650975789849,
      "longitude_deg": 145.99748119630726,
      "height_km": 35796.322995604605,
      "semi_major_axis_km": 42164.466765134835,
      "eccentricity": 0.00025139,
      "inclination_deg": 0.0314,
      "raan_deg": 139.7806,
      "arg_perigee_deg": 315.6238,
      "mean_anomaly_deg": 184.6796,
      "mean_motion_rev_day": 1.00272731
    },
    {
      "epoch": "2026-04-03T20:17:38.633856Z",
      "apogee_km": 35797.55404283278,
      "perigee_km": 35775.71269178251,
      "latitude_deg": 0.0364638726461558,
      "longitude_deg": 145.99390543968866,
      "height_km": 35796.691910411304,
      "semi_major_axis_km": 42164.77036730765,
      "eccentricity": 0.000259,
      "inclination_deg": 0.0307,
      "raan_deg": 141.3341,
      "arg_perigee_deg": 307.9457,
      "mean_anomaly_deg": 193.2971,
      "mean_motion_rev_day": 1.00271648
    },
    {
      "epoch": "2026-04-04T05:39:38.842272Z",
      "apogee_km": 35797.60954800698,
      "perigee_km": 35775.55234075591,
      "latitude_deg": -0.039024175444574365,
      "longitude_deg": 145.9873505292794,
      "height_km": 35776.17574879677,
      "semi_major_axis_km": 42164.717944381446,
      "eccentricity": 0.00026156,
      "inclination_deg": 0.0319,
      "raan_deg": 139.1744,
      "arg_perigee_deg": 310.0809,
      "mean_anomaly_deg": 334.2075,
      "mean_motion_rev_day": 1.00271835
    },
    {
      "epoch": "2026-04-05T13:27:38.734272Z",
      "apogee_km": 35797.59054031227,
      "perigee_km": 35775.14131566335,
      "latitude_deg": 0.006727506487382185,
      "longitude_deg": 146.03979345907948,
      "height_km": 35786.28271961835,
      "semi_major_axis_km": 42164.502927987814,
      "eccentricity": 0.00026621,
      "inclination_deg": 0.0291,
      "raan_deg": 145.6674,
      "arg_perigee_deg": 304.1123,
      "mean_anomaly_deg": 92.0001,
      "mean_motion_rev_day": 1.00272602
    },
    {
      "epoch": "2026-04-05T20:17:09.356352Z",
      "apogee_km": 35797.80636359718,
      "perigee_km": 35775.08808561696,
      "latitude_deg": 0.03378540587986867,
      "longitude_deg": 146.00174930941478,
      "height_km": 35796.874128403535,
      "semi_major_axis_km": 42164.58422460707,
      "eccentricity": 0.0002694,
      "inclination_deg": 0.0295,
      "raan_deg": 145.0371,
      "arg_perigee_deg": 304.78,
      "mean_anomaly_deg": 194.6211,
      "mean_motion_rev_day": 1.00272312
    },
    {
      "epoch": "2026-04-06T04:23:38.690016Z",
      "apogee_km": 35797.82059752356,
      "perigee_km": 35775.04245431449,
      "latitude_deg": -0.03066661235263281,
      "longitude_deg": 145.98905870334892,
      "height_km": 35777.665757280076,
      "semi_major_axis_km": 42164.56852591903,
      "eccentricity": 0.00027011,
      "inclination_deg": 0.0305,
      "raan_deg": 142.8231,
      "arg_perigee_deg": 307.0171,
      "mean_anomaly_deg": 316.5542,
      "mean_motion_rev_day": 1.00272368
    },
    {
      "epoch": "2026-04-06T21:57:19.683360Z",
      "apogee_km": 35797.8179618185,
      "perigee_km": 35774.787744770634,
      "latitude_deg": 0.022329179129370567,
      "longitude_deg": 145.99556569076697,
      "height_km": 35794.99933830465,
      "semi_major_axis_km": 42164.43985329457,
      "eccentricity": 0.0002731,
      "inclination_deg": 0.0299,
      "raan_deg": 143.3318,
      "arg_perigee_deg": 310.7391,
      "mean_anomaly_deg": 216.4701,
      "mean_motion_rev_day": 1.00272827
    },
    {
      "epoch": "2026-04-08T06:28:13.521216Z",
      "apogee_km": 35799.21920482587,
      "perigee_km": 35774.68333996017,
      "latitude_deg": -0.03536411929731029,
      "longitude_deg": 146.00654951554577,
      "height_km": 35774.48353715659,
      "semi_major_axis_km": 42165.088272393026,
      "eccentricity": 0.00029095,
      "inclination_deg": 0.0312,
      "raan_deg": 140.2355,
      "arg_perigee_deg": 311.424,
      "mean_anomaly_deg": 347.9412,
      "mean_motion_rev_day": 1.00270514
    },
    {
      "epoch": "2026-04-09T16:41:53.540448Z",
      "apogee_km": 35799.18373633252,
      "perigee_km": 35774.64367682129,
      "latitude_deg": 0.03396649213250535,
      "longitude_deg": 146.03351392112856,
      "height_km": 35796.07214198394,
      "semi_major_axis_km": 42165.050706576905,
      "eccentricity": 0.000291,
      "inclination_deg": 0.0307,
      "raan_deg": 140.6212,
      "arg_perigee_deg": 311.6628,
      "mean_anomaly_deg": 142.1396,
      "mean_motion_rev_day": 1.00270648
    },
    {
      "epoch": "2026-04-10T11:31:17.787072Z",
      "apogee_km": 35799.67856807533,
      "perigee_km": 35774.30359399616,
      "latitude_deg": -0.0018749513155511335,
      "longitude_deg": 146.03982205780966,
      "height_km": 35781.01347053828,
      "semi_major_axis_km": 42165.12808103575,
      "eccentricity": 0.0003009,
      "inclination_deg": 0.032,
      "raan_deg": 137.2752,
      "arg_perigee_deg": 316.0251,
      "mean_anomaly_deg": 64.2436,
      "mean_motion_rev_day": 1.00270372
    },
    {
      "epoch": "2026-04-10T21:47:20.425920Z",
      "apogee_km": 35798.70372262734,
      "perigee_km": 35774.57366479334,
      "latitude_deg": 0.01934592277139446,
      "longitude_deg": 145.99200670099373,
      "height_km": 35795.57400114336,
      "semi_major_axis_km": 42164.77569371034,
      "eccentricity": 0.00028614,
      "inclination_deg": 0.0316,
      "raan_deg": 140.5728,
      "arg_perigee_deg": 313.3061,
      "mean_anomaly_deg": 218.1014,
      "mean_motion_rev_day": 1.00271629
    },
    {
      "epoch": "2026-04-12T21:42:15.076224Z",
      "apogee_km": 35798.33740892699,
      "perigee_km": 35773.593826946686,
      "latitude_deg": 0.01882224561291845,
      "longitude_deg": 145.98665862247748,
      "height_km": 35795.00750828547,
      "semi_major_axis_km": 42164.10261793684,
      "eccentricity": 0.00029342,
      "inclination_deg": 0.0326,
      "raan_deg": 136.8403,
      "arg_perigee_deg": 316.7707,
      "mean_anomaly_deg": 219.0634,
      "mean_motion_rev_day": 1.0027403
    },
    {
      "epoch": "2026-04-14T06:13:02.466912Z",
      "apogee_km": 35799.085452049265,
      "perigee_km": 35774.89110316497,
      "latitude_deg": -0.03929056578556703,
      "longitude_deg": 145.99081013197545,
      "height_km": 35774.70396993382,
      "semi_major_axis_km": 42165.12527760712,
      "eccentricity": 0.0002869,
      "inclination_deg": 0.0347,
      "raan_deg": 134.3507,
      "arg_perigee_deg": 319.5178,
      "mean_anomaly_deg": 347.8314,
      "mean_motion_rev_day": 1.00270382
    },
    {
      "epoch": "2026-04-15T19:51:56.132064Z",
      "apogee_km": 35798.71602069565,
      "perigee_km": 35774.850675778536,
      "latitude_deg": 0.03335596064492592,
      "longitude_deg": 145.99146683372476,
      "height_km": 35797.77715618043,
      "semi_major_axis_km": 42164.920348237094,
      "eccentricity": 0.000283,
      "inclination_deg": 0.0328,
      "raan_deg": 139.5175,
      "arg_perigee_deg": 314.2144,
      "mean_anomaly_deg": 194.2429,
      "mean_motion_rev_day": 1.00271113
    },
    {
      "epoch": "2026-04-16T19:49:22.232064Z",
      "apogee_km": 35798.670037831456,
      "perigee_km": 35774.568663101534,
      "latitude_deg": 0.03277388377216186,
      "longitude_deg": 145.99613734553887,
      "height_km": 35798.00264670708,
      "semi_major_axis_km": 42164.7563504665,
      "eccentricity": 0.0002858,
      "inclination_deg": 0.0328,
      "raan_deg": 140.9963,
      "arg_perigee_deg": 320.2462,
      "mean_anomaly_deg": 187.077,
      "mean_motion_rev_day": 1.00271698
    },
    {
      "epoch": "2026-04-17T21:29:27.688704Z",
      "apogee_km": 35798.78001342461,
      "perigee_km": 35774.8674209027,
      "latitude_deg": 0.022744501385917333,
      "longitude_deg": 145.981399020276,
      "height_km": 35795.46175109332,
      "semi_major_axis_km": 42164.96071716366,
      "eccentricity": 0.00028356,
      "inclination_deg": 0.033,
      "raan_deg": 139.6265,
      "arg_perigee_deg": 315.1671,
      "mean_anomaly_deg": 219.6049,
      "mean_motion_rev_day": 1.00270969
    },
    {
      "epoch": "2026-04-18T07:45:27.249984Z",
      "apogee_km": 35798.73536590482,
      "perigee_km": 35774.98888169827,
      "latitude_deg": -0.029186436019214508,
      "longitude_deg": 146.00921949161017,
      "height_km": 35774.88905623517,
      "semi_major_axis_km": 42164.99912380155,
      "eccentricity": 0.00028159,
      "inclination_deg": 0.0344,
      "raan_deg": 136.6345,
      "arg_perigee_deg": 318.1939,
      "mean_anomaly_deg": 13.9888,
      "mean_motion_rev_day": 1.00270832
    },
    {
      "epoch": "2026-04-19T17:58:56.400096Z",
      "apogee_km": 35798.55607018922,
      "perigee_km": 35774.78355210909,
      "latitude_deg": 0.027511539079794003,
      "longitude_deg": 146.0194531221887,
      "height_km": 35797.772887544954,
      "semi_major_axis_km": 42164.80681114915,
      "eccentricity": 0.0002819,
      "inclination_deg": 0.0325,
      "raan_deg": 141.857,
      "arg_perigee_deg": 313.346,
      "mean_anomaly_deg": 168.4001,
      "mean_motion_rev_day": 1.00271518
    }
  ]
}